[{"OBJECT_NAME":"JY1SAT (JO-97)","OBJECT_ID":"2018-099AX","EPOCH":"2026-03-09T16:28:19.890048","MEAN_MOTION":15.30302629,"ECCENTRICITY":0.00047232,"INCLINATION":97.4249,"RA_OF_ASC_NODE":131.3625,"ARG_OF_PERICENTER":256.6795,"MEAN_ANOMALY":103.3919,"EPHEMERIS_TYPE":0,"CLASSIFICATION_TYPE":"U","NORAD_CAT_ID":43803,"ELEMENT_SET_NO":999,"REV_AT_EPOCH":39839,"BSTAR":0.00060804308,"MEAN_MOTION_DOT":0.00017774,"MEAN_MOTION_DDOT":0},{"OBJECT_NAME":"STARLINK-35877","OBJECT_ID":"2025-294V","EPOCH":"2026-03-09T06:43:58.814112","MEAN_MOTION":15.27588364,"ECCENTRICITY":0.00018784,"INCLINATION":43.003,"RA_OF_ASC_NODE":40.6399,"ARG_OF_PERICENTER":255.1594,"MEAN_ANOMALY":104.905,"EPHEMERIS_TYPE":0,"CLASSIFICATION_TYPE":"U","NORAD_CAT_ID":67049,"ELEMENT_SET_NO":999,"REV_AT_EPOCH":1473,"BSTAR":0.00091411684,"MEAN_MOTION_DOT":0.00024984,"MEAN_MOTION_DDOT":0}]
